[{"OBJECT_NAME":"STARLINK-3827","OBJECT_ID":"2022-045AR","EPOCH":"2026-03-09T15:20:34.434816","MEAN_MOTION":15.0883779,"ECCENTRICITY":0.0001291,"INCLINATION":53.2187,"RA_OF_ASC_NODE":189.3589,"ARG_OF_PERICENTER":91.769,"MEAN_ANOMALY":268.345,"EPHEMERIS_TYPE":0,"CLASSIFICATION_TYPE":"U","NORAD_CAT_ID":52370,"ELEMENT_SET_NO":999,"REV_AT_EPOCH":21591,"BSTAR":5.371e-5,"MEAN_MOTION_DOT":5.67e-6,"MEAN_MOTION_DDOT":0},{"OBJECT_NAME":"POSAT-2","OBJECT_ID":"2025-009DR","EPOCH":"2026-03-09T23:15:20.314368","MEAN_MOTION":15.10404492,"ECCENTRICITY":0.00077103,"INCLINATION":97.4906,"RA_OF_ASC_NODE":146.0095,"ARG_OF_PERICENTER":126.4226,"MEAN_ANOMALY":233.7715,"EPHEMERIS_TYPE":0,"CLASSIFICATION_TYPE":"U","NORAD_CAT_ID":63488,"ELEMENT_SET_NO":999,"REV_AT_EPOCH":5165,"BSTAR":0.0010942248,"MEAN_MOTION_DOT":0.00017957,"MEAN_MOTION_DDOT":0}]
